{"type": "FeatureCollection", "features": [ {"type": "Feature", "properties": {"norad_id": 66688, "name": "TRANSPORTER-15Y", "group": "last-30-days", "lat": -63.9840468987194, "lon": -122.86531137813353, "alt_km": 519.2860810533384, "timestamp": "2025-12-27T03:58:42.931116+00:00", "meta": {"OBJECT_NAME": "TRANSPORTER-15Y", "OBJECT_ID": "2025-276Y", "EPOCH": "2025-12-26T15:49:17.606784", "MEAN_MOTION": 15.17138804, "ECCENTRICITY": 0.0003811, "INCLINATION": 97.4426, "RA_OF_ASC_NODE": 72.1727, "ARG_OF_PERICENTER": 223.3358, "MEAN_ANOMALY": 136.7576, "EPHEMERIS_TYPE": 0, "CLASSIFICATION_TYPE": "U", "NORAD_CAT_ID": 66688, "ELEMENT_SET_NO": 999, "REV_AT_EPOCH": 423, "BSTAR": 0.00047879, "MEAN_MOTION_DOT": 9.438e-05, "MEAN_MOTION_DDOT": 0}, "tle": {"line1": "1 66688U 25276Y   25360.65923156  .00009438  00000+0  47879-3 0  9990", "line2": "2 66688  97.4426  72.1727 0003811 223.3358 136.7576 15.17138804  4235"}}, "geometry": {"type": "Point", "coordinates": [-122.86531137813353, -63.9840468987194]}}, {"type": "Feature", "properties": {"norad_id": 66689, "name": "TRANSPORTER-15Z", "group": "last-30-days", "lat": 7.3871339195884405, "lon": -106.25388489755139, "alt_km": 421.3602640885438, "timestamp": "2025-12-27T03:58:42.931126+00:00", "meta": {"OBJECT_NAME": "TRANSPORTER-15Z", "OBJECT_ID": "2025-276Z", "EPOCH": "2025-12-22T21:27:46.425312", "MEAN_MOTION": 15.23073772, "ECCENTRICITY": 0.00272271, "INCLINATION": 97.4409, "RA_OF_ASC_NODE": 68.4858, "ARG_OF_PERICENTER": 260.8557, "MEAN_ANOMALY": 98.9599, "EPHEMERIS_TYPE": 0, "CLASSIFICATION_TYPE": "U", "NORAD_CAT_ID": 66689, "ELEMENT_SET_NO": 999, "REV_AT_EPOCH": 366, "BSTAR": 0.086131248, "MEAN_MOTION_DOT": 0.02294864, "MEAN_MOTION_DDOT": 0}, "tle": {"line1": "1 66689U 25276Z   25356.89428733  .02294864  00000+0  86131-1 0  9996", "line2": "2 66689  97.4409  68.4858 0027227 260.8557  98.9599 15.23073772  3663"}}, "geometry": {"type": "Point", "coordinates": [-106.25388489755139, 7.3871339195884405]}}, {"type": "Feature", "properties": {"norad_id": 66690, "name": "TRANSPORTER-15AA", "group": "last-30-days", "lat": -63.3077408712141, "lon": -122.40573510350113, "alt_km": 519.3118843820093, "timestamp": "2025-12-27T03:58:42.931143+00:00", "meta": {"OBJECT_NAME": "TRANSPORTER-15AA", "OBJECT_ID": "2025-276AA", "EPOCH": "2025-12-26T15:49:27.870240", "MEAN_MOTION": 15.17109637, "ECCENTRICITY": 0.0003718, "INCLINATION": 97.4388, "RA_OF_ASC_NODE": 72.1595, "ARG_OF_PERICENTER": 230.0202, "MEAN_ANOMALY": 130.0705, "EPHEMERIS_TYPE": 0, "CLASSIFICATION_TYPE": "U", "NORAD_CAT_ID": 66690, "ELEMENT_SET_NO": 999, "REV_AT_EPOCH": 423, "BSTAR": 0.0004956, "MEAN_MOTION_DOT": 9.764e-05, "MEAN_MOTION_DDOT": 0}, "tle": {"line1": "1 66690U 25276AA  25360.65935035  .00009764  00000+0  49560-3 0  9993", "line2": "2 66690  97.4388  72.1595 0003718 230.0202 130.0705 15.17109637  4230"}}, "geometry": {"type": "Point", "coordinates": [-122.40573510350113, -63.3077408712141]}}, {"type": "Feature", "properties": {"norad_id": 66691, "name": "TRANSPORTER-15AB", "group": "last-30-days", "lat": -76.90029647895362, "lon": -141.49955351915122, "alt_km": 518.7764755109147, "timestamp": "2025-12-27T03:58:42.931153+00:00", "meta": {"OBJECT_NAME": "TRANSPORTER-15AB", "OBJECT_ID": "2025-276AB", "EPOCH": "2025-12-26T17:20:37.091328", "MEAN_MOTION": 15.17379546, "ECCENTRICITY": 0.000384, "INCLINATION": 97.4412, "RA_OF_ASC_NODE": 72.2359, "ARG_OF_PERICENTER": 231.2844, "MEAN_ANOMALY": 128.8046, "EPHEMERIS_TYPE": 0, "CLASSIFICATION_TYPE": "U", "NORAD_CAT_ID": 66691, "ELEMENT_SET_NO": 999, "REV_AT_EPOCH": 424, "BSTAR": 0.00055434, "MEAN_MOTION_DOT": 0.00011016, "MEAN_MOTION_DDOT": 0}, "tle": {"line1": "1 66691U 25276AB  25360.72265152  .00011016  00000+0  55434-3 0  9998", "line2": "2 66691  97.4412  72.2359 0003840 231.2844 128.8046 15.17379546  4241"}}, "geometry": {"type": "Point", "coordinates": [-141.49955351915122, -76.90029647895362]}}, {"type": "Feature", "properties": {"norad_id": 66692, "name": "TRANSPORTER-15AC", "group": "last-30-days", "lat": -79.39583398514146, "lon": 116.95868289051806, "alt_km": 519.871160842793, "timestamp": "2025-12-27T03:58:42.931162+00:00", "meta": {"OBJECT_NAME": "TRANSPORTER-15AC", "OBJECT_ID": "2025-276AC", "EPOCH": "2025-12-26T04:36:08.314560", "MEAN_MOTION": 15.17447229, "ECCENTRICITY": 0.00017803, "INCLINATION": 97.4413, "RA_OF_ASC_NODE": 71.7258, "ARG_OF_PERICENTER": 246.4774, "MEAN_ANOMALY": 113.6272, "EPHEMERIS_TYPE": 0, "CLASSIFICATION_TYPE": "U", "NORAD_CAT_ID": 66692, "ELEMENT_SET_NO": 999, "REV_AT_EPOCH": 416, "BSTAR": 0.00030393663, "MEAN_MOTION_DOT": 6.017e-05, "MEAN_MOTION_DDOT": 0}, "tle": {"line1": "1 66692U 25276AC  25360.19176290  .00006017  00000+0  30394-3 0  9997", "line2": "2 66692  97.4413  71.7258 0001780 246.4774 113.6272 15.17447229  4164"}}, "geometry": {"type": "Point", "coordinates": [116.95868289051806, -79.39583398514146]}}, {"type": "Feature", "properties": {"norad_id": 66693, "name": "TRANSPORTER-15AD", "group": "last-30-days", "lat": -76.81096223196634, "lon": 106.53662691803525, "alt_km": 517.9896517897632, "timestamp": "2025-12-27T03:58:42.931171+00:00", "meta": {"OBJECT_NAME": "TRANSPORTER-15AD", "OBJECT_ID": "2025-276AD", "EPOCH": "2025-12-26T18:49:57.557280", "MEAN_MOTION": 15.17730847, "ECCENTRICITY": 0.0003277, "INCLINATION": 97.4366, "RA_OF_ASC_NODE": 72.2881, "ARG_OF_PERICENTER": 255.8402, "MEAN_ANOMALY": 104.2468, "EPHEMERIS_TYPE": 0, "CLASSIFICATION_TYPE": "U", "NORAD_CAT_ID": 66693, "ELEMENT_SET_NO": 999, "REV_AT_EPOCH": 425, "BSTAR": 0.00076462, "MEAN_MOTION_DOT": 0.00015382, "MEAN_MOTION_DDOT": 0}, "tle": {"line1": "1 66693U 25276AD  25360.78469395  .00015382  00000+0  76462-3 0  9995", "line2": "2 66693  97.4366  72.2881 0003277 255.8402 104.2468 15.17730847  4259"}}, "geometry": {"type": "Point", "coordinates": [106.53662691803525, -76.81096223196634]}}, {"type": "Feature", "properties": {"norad_id": 66694, "name": "YAM-9", "group": "last-30-days", "lat": -75.37169277442744, "lon": 102.72947850506417, "alt_km": 537.3768072325547, "timestamp": "2025-12-27T03:58:42.931180+00:00", "meta": {"OBJECT_NAME": "YAM-9", "OBJECT_ID": "2025-276AE", "EPOCH": "2025-12-26T18:48:28.776096", "MEAN_MOTION": 15.15263195, "ECCENTRICITY": 0.0011384, "INCLINATION": 97.4413, "RA_OF_ASC_NODE": 72.3057, "ARG_OF_PERICENTER": 134.6093, "MEAN_ANOMALY": 225.607, "EPHEMERIS_TYPE": 0, "CLASSIFICATION_TYPE": "U", "NORAD_CAT_ID": 66694, "ELEMENT_SET_NO": 999, "REV_AT_EPOCH": 425, "BSTAR": -0.069565, "MEAN_MOTION_DOT": -0.01203776, "MEAN_MOTION_DDOT": 0}, "tle": {"line1": "1 66694U 25276AE  25360.78366639 -.01203776  00000+0 -69565-1 0  9996", "line2": "2 66694  97.4413  72.3057 0011384 134.6093 225.6070 15.15263195  4259"}}, "geometry": {"type": "Point", "coordinates": [102.72947850506417, -75.37169277442744]}}, {"type": "Feature", "properties": {"norad_id": 66695, "name": "IRIDE FM1", "group": "last-30-days", "lat": -2.2094666277221697, "lon": 72.99677088936612, "alt_km": 515.3831663781439, "timestamp": "2025-12-27T03:58:42.931189+00:00", "meta": {"OBJECT_NAME": "IRIDE FM1", "OBJECT_ID": "2025-276AF", "EPOCH": "2025-12-26T20:04:47.843904", "MEAN_MOTION": 15.18329918, "ECCENTRICITY": 0.000209, "INCLINATION": 97.4399, "RA_OF_ASC_NODE": 72.3842, "ARG_OF_PERICENTER": 143.0407, "MEAN_ANOMALY": 217.0972, "EPHEMERIS_TYPE": 0, "CLASSIFICATION_TYPE": "U", "NORAD_CAT_ID": 66695, "ELEMENT_SET_NO": 999, "REV_AT_EPOCH": 426, "BSTAR": 0.0010357, "MEAN_MOTION_DOT": 0.00021236, "MEAN_MOTION_DDOT": 0}, "tle": {"line1": "1 66695U 25276AF  25360.83666486  .00021236  00000+0  10357-2 0  9998", "line2": "2 66695  97.4399  72.3842 0002090 143.0407 217.0972 15.18329918  4268"}}, "geometry": {"type": "Point", "coordinates": [72.99677088936612, -2.2094666277221697]}}, {"type": "Feature", "properties": {"norad_id": 66696, "name": "IRIDE FM2", "group": "last-30-days", "lat": -81.6615779952512, "lon": 135.712388389142, "alt_km": 519.2793104582852, "timestamp": "2025-12-27T03:58:42.931202+00:00", "meta": {"OBJECT_NAME": "IRIDE FM2", "OBJECT_ID": "2025-276AG", "EPOCH": "2025-12-26T18:51:45.381024", "MEAN_MOTION": 15.17469229, "ECCENTRICITY": 0.0002569, "INCLINATION": 97.4383, "RA_OF_ASC_NODE": 72.2929, "ARG_OF_PERICENTER": 246.7394, "MEAN_ANOMALY": 113.357, "EPHEMERIS_TYPE": 0, "CLASSIFICATION_TYPE": "U", "NORAD_CAT_ID": 66696, "ELEMENT_SET_NO": 999, "REV_AT_EPOCH": 425, "BSTAR": 0.00048059, "MEAN_MOTION_DOT": 9.563e-05, "MEAN_MOTION_DDOT": 0}, "tle": {"line1": "1 66696U 25276AG  25360.78594191  .00009563  00000+0  48059-3 0  9996", "line2": "2 66696  97.4383  72.2929 0002569 246.7394 113.3570 15.17469229  4254"}}, "geometry": {"type": "Point", "coordinates": [135.712388389142, -81.6615779952512]}}, {"type": "Feature", "properties": {"norad_id": 66697, "name": "IRIDE FM3", "group": "last-30-days", "lat": -9.982509911616944, "lon": 74.0162118247784, "alt_km": 516.4401541371444, "timestamp": "2025-12-27T03:58:42.931212+00:00", "meta": {"OBJECT_NAME": "IRIDE FM3", "OBJECT_ID": "2025-276AH", "EPOCH": "2025-12-26T16:57:00.861408", "MEAN_MOTION": 15.18223319, "ECCENTRICITY": 0.0001503, "INCLINATION": 97.4381, "RA_OF_ASC_NODE": 72.2468, "ARG_OF_PERICENTER": 149.7209, "MEAN_ANOMALY": 210.4112, "EPHEMERIS_TYPE": 0, "CLASSIFICATION_TYPE": "U", "NORAD_CAT_ID": 66697, "ELEMENT_SET_NO": 999, "REV_AT_EPOCH": 424, "BSTAR": 0.00034796, "MEAN_MOTION_DOT": 7.055e-05, "MEAN_MOTION_DDOT": 0}, "tle": {"line1": "1 66697U 25276AH  25360.70625997  .00007055  00000+0  34796-3 0  9995", "line2": "2 66697  97.4381  72.2468 0001503 149.7209 210.4112 15.18223319  4244"}}, "geometry": {"type": "Point", "coordinates": [74.0162118247784, -9.982509911616944]}}]}